{"type":"Feature","properties":{"id":"cn-south-tibet-exclusion","view":"CN","purpose":"source-build-clipping"},"geometry":{"type":"Polygon","coordinates":[[[91.6287231,27.8536473],[91.5655518,27.8512189],[91.5655518,27.8220739],[91.6369629,27.7832016],[91.6259766,27.7175732],[91.5792847,27.6567709],[91.5737915,27.6202733],[91.6040039,27.5326294],[91.656189,27.4790348],[91.7276001,27.4595393],[91.9006348,27.4595393],[91.9747925,27.4717244],[92.024231,27.4473529],[92.0901489,27.2912484],[92.0379639,27.2375367],[91.9967651,27.1569205],[91.9885254,27.103144],[91.9995117,27.0713548],[92.0681763,26.9955135],[92.0846558,26.9367625],[92.0736694,26.8877799],[92.0352173,26.8559298],[92.1081258,26.8732184],[92.1150905,26.8626105],[92.1273169,26.8554168],[92.141809,26.8528411],[92.1639454,26.8545426],[92.2156394,26.8650109],[92.2804303,26.8823985],[92.4597813,26.915256],[92.5511636,26.9440851],[92.6040545,26.9521847],[92.6456387,26.9551226],[92.6626655,26.9540284],[92.6753894,26.9504739],[92.7275859,26.9251873],[92.7883446,26.901904],[92.8100303,26.9018261],[92.844687,26.9148718],[92.8752919,26.9224982],[92.9058634,26.9235767],[92.9672234,26.9161449],[93.0524988,26.8909768],[93.0848221,26.8899616],[93.2450577,26.9143408],[93.3464748,26.9265999],[93.4598587,26.9286809],[93.5224253,26.9348406],[93.5810164,26.9446756],[93.611153,26.9517825],[93.6430925,26.9631355],[93.7173548,27.0006072],[93.7345675,27.0070855],[93.8151732,27.0228449],[93.8226296,27.026917],[93.8351767,27.0417366],[93.8408826,27.0545987],[93.846605,27.0825455],[93.854465,27.1533139],[93.863023,27.1792751],[93.8733424,27.196031],[93.9141662,27.2435168],[93.9633825,27.2913323],[93.9989181,27.3319394],[94.066046,27.4010348],[94.1078848,27.4378842],[94.1500221,27.4690664],[94.2504361,27.5620243],[94.2444337,27.5597984],[94.3057186,27.5843266],[94.3806665,27.5759113],[94.4244141,27.5934108],[94.4801356,27.599781],[94.5138164,27.6003946],[94.5350153,27.6048864],[94.5851547,27.6247566],[94.7593081,27.7021635],[94.8558273,27.7396992],[94.8842602,27.7537784],[94.9355271,27.792173],[94.9620923,27.8061382],[95.0176413,27.8273996],[95.0704356,27.8430166],[95.1496132,27.8842547],[95.2539845,27.9231675],[95.2646843,27.9298446],[95.2929003,27.9547579],[95.3378762,28.0239351],[95.3556432,28.0658271],[95.3607775,28.0948389],[95.3721868,28.117135],[95.3892539,28.1355063],[95.4138711,28.1505031],[95.4362713,28.1606189],[95.5291749,28.1854666],[95.5663083,28.2002346],[95.6492683,28.242542],[95.6923338,28.2604266],[95.7289492,28.2674878],[95.7479113,28.2740811],[95.7872973,28.2768912],[95.8205732,28.2931902],[95.8439423,28.2975098],[95.8779454,28.2911495],[95.8961035,28.2759567],[95.9078257,28.2462919],[95.9447527,28.2303335],[95.9623814,28.2152067],[95.9993887,28.197071],[96.0560745,28.1949582],[96.092149,28.2102969],[96.1092093,28.2146214],[96.162758,28.2130476],[96.1886438,28.2172845],[96.2227959,28.2275812],[96.2429957,28.2301851],[96.2656159,28.2243895],[96.2762402,28.217031],[96.2861298,28.2013054],[96.2903863,28.1667234],[96.294662,28.1555086],[96.3026231,28.1448719],[96.3136738,28.1368403],[96.3531971,28.1252792],[96.3733216,28.1233981],[96.3946338,28.1450012],[96.4058394,28.1521666],[96.4241791,28.1563395],[96.4401513,28.1542089],[96.4642369,28.1408489],[96.479678,28.1194651],[96.4934554,28.0834775],[96.4991782,28.0764583],[96.5072644,28.0727158],[96.5291291,28.0722777],[96.5557162,28.0672392],[96.6015347,28.0416673],[96.6112108,28.0322408],[96.6475283,27.9829553],[96.6685429,27.9631994],[96.6913158,27.9531532],[96.7219526,27.9505065],[96.750038,27.9415817],[96.7794793,27.926812],[96.7944589,27.9157093],[96.811453,27.8987583],[96.8394564,27.8833006],[96.851959,27.8797771],[96.9079177,27.882333],[96.9510988,27.8733309],[97.0295465,27.810487],[97.0462201,27.7903938],[97.0564058,27.7656738],[97.061315,27.7600152],[97.071242,27.754278],[97.0844041,27.7535132],[97.1018349,27.7634829],[97.1147468,27.7810937],[97.166069,27.8186334],[97.245407,27.8876532],[97.270857,27.9022929],[97.2922879,27.9052737],[97.3167498,27.9031738],[97.3477697,27.8853216],[97.3688225,27.8882379],[97.3779953,27.8964981],[97.3797151,27.9048798],[97.3762063,27.955699],[97.3785497,27.9679568],[97.382622,27.9753917],[97.3896138,28.0118628],[97.3855942,28.0286838],[97.3673335,28.0558088],[97.3334379,28.0597585],[97.3205253,28.0648152],[97.3160579,28.0706703],[97.3132704,28.0869093],[97.3300161,28.1023686],[97.3360707,28.1129383],[97.335109,28.1345405],[97.351866,28.1794673],[97.3486522,28.2046478],[97.3508313,28.2174503],[97.3223877,28.2172898],[97.116394,28.3672354],[97.0779419,28.3744855],[96.965332,28.3309776],[96.7181396,28.4372987],[96.5615845,28.4469589],[96.3693237,28.3793186],[96.3006592,28.4203911],[96.3363647,28.4807629],[96.5011597,28.6447996],[96.5011597,28.6881783],[96.59729,28.7098608],[96.5753174,28.8085802],[96.512146,28.8855645],[96.4929199,28.9480723],[96.4517212,28.9697008],[96.4572144,28.9937272],[96.3665771,29.0369606],[96.2979126,28.9961295],[96.2484741,28.9456688],[96.1962891,28.9408618],[96.177063,29.017748],[96.1743164,29.1089762],[96.210022,29.144965],[96.3171387,29.1713489],[96.3665771,29.2576485],[96.3363647,29.2792121],[96.2677002,29.2408737],[96.2347412,29.2408737],[96.177063,29.2863989],[96.1413574,29.3678144],[95.9545898,29.3582395],[95.8639526,29.3247202],[95.7952881,29.3534517],[95.7458496,29.3414812],[95.7485962,29.2744205],[95.7183838,29.2193021],[95.6469727,29.22889],[95.592041,29.2504596],[95.5645752,29.2456668],[95.5508423,29.2121105],[95.5151367,29.2097132],[95.5206299,29.1377683],[95.4876709,29.0681735],[95.3668213,29.0369606],[95.223999,29.0585706],[95.1992798,29.0945771],[95.1168823,29.1089762],[94.987793,29.1545599],[94.7763062,29.1665523],[94.7625732,29.173747],[94.7680664,29.2145078],[94.704895,29.2840033],[94.6307373,29.3199308],[94.6005249,29.317536],[94.5153809,29.2216991],[94.3972778,29.2073159],[94.3725586,29.1953283],[94.336853,29.1497626],[94.2874146,29.1473638],[94.2709351,29.0969771],[94.3478394,29.0249532],[94.2489624,28.9336508],[94.1748047,28.931247],[94.1363525,28.8975882],[93.9907837,28.8446737],[93.9825439,28.7676591],[93.9276123,28.6833593],[93.8644409,28.7050429],[93.7820435,28.6809497],[93.7216187,28.6978155],[93.6639404,28.6905877],[93.6254883,28.6713109],[93.4469604,28.6713109],[93.3178711,28.6038144],[93.2876587,28.5193828],[93.1860352,28.4324682],[93.2189941,28.3938166],[93.2080078,28.3406476],[92.9745483,28.2826146],[92.9031372,28.2487475],[92.8344727,28.1834019],[92.7905273,28.1785598],[92.779541,28.1955059],[92.6779175,28.1325499],[92.6367188,28.0719803],[92.6394653,28.0574385],[92.7026367,28.0380464],[92.7355957,27.9847001],[92.6834106,27.9094855],[92.6367188,27.8949218],[92.5762939,27.8487905],[92.5186157,27.8390761],[92.4746704,27.846362],[92.4279785,27.8220739],[92.3922729,27.8560757],[92.3675537,27.8026395],[92.3510742,27.8026395],[92.3291016,27.8317898],[92.3043823,27.7856315],[92.2384644,27.8657885],[92.1258545,27.8123571],[92.0654297,27.7613299],[91.9885254,27.7686209],[91.9528198,27.7248672],[91.8649292,27.7297296],[91.8264771,27.8074984],[91.7303467,27.805069],[91.6809082,27.8487905],[91.6287231,27.8536473]]]}}
